$$SOE
2459580.500000000, A.D. 2022-Jan-01 00:00:00.0000, -1.837899235449268E+09, -6.017076125007154E+09, 4.857249221634080E+08,
2459587.500000000, A.D. 2022-Jan-08 00:00:00.0000, -1.835182812279788E+09, -6.017709836778559E+09, 4.860734052417693E+08,
2459594.500000000, A.D. 2022-Jan-15 00:00:00.0000, -1.832466114079280E+09, -6.018342368735250E+09, 4.864217958131781E+08,
2459601.500000000, A.D. 2022-Jan-22 00:00:00.0000, -1.829749137431797E+09, -6.018973722166132E+09, 4.867700934273570E+08,
2459608.500000000, A.D. 2022-Jan-29 00:00:00.0000, -1.827031878342478E+09, -6.019603895883928E+09, 4.871182977411611E+08,
2459615.500000000, A.D. 2022-Feb-05 00:00:00.0000, -1.824314334444629E+09, -6.020232886896872E+09, 4.874664086663539E+08,
2459622.500000000, A.D. 2022-Feb-12 00:00:00.0000, -1.821596505033477E+09, -6.020860692148597E+09, 4.878144262323172E+08,
2459629.500000000, A.D. 2022-Feb-19 00:00:00.0000, -1.818878390251373E+09, -6.021487308957315E+09, 4.881623504787307E+08,
2459636.500000000, A.D. 2022-Feb-26 00:00:00.0000, -1.816159990735841E+09, -6.022112734877217E+09, 4.885101814392149E+08,
2459643.500000000, A.D. 2022-Mar-05 00:00:00.0000, -1.813441307571148E+09, -6.022736967598999E+09, 4.888579191506736E+08,
2459650.500000000, A.D. 2022-Mar-12 00:00:00.0000, -1.810722342321633E+09, -6.023360004955119E+09, 4.892055636623321E+08,
2459657.500000000, A.D. 2022-Mar-19 00:00:00.0000, -1.808003097075689E+09, -6.023981845001652E+09, 4.895531150399375E+08,
2459664.500000000, A.D. 2022-Mar-26 00:00:00.0000, -1.805283574478022E+09, -6.024602486182426E+09, 4.899005733622994E+08,
2459671.500000000, A.D. 2022-Apr-02 00:00:00.0000, -1.802563777682377E+09, -6.025221927631123E+09, 4.902479386991122E+08,
2459678.500000000, A.D. 2022-Apr-09 00:00:00.0000, -1.799843709952674E+09, -6.025840169606236E+09, 4.905952110452888E+08,
2459685.500000000, A.D. 2022-Apr-16 00:00:00.0000, -1.797123373555425E+09, -6.026457213404641E+09, 4.909423902323103E+08,
2459692.500000000, A.D. 2022-Apr-23 00:00:00.0000, -1.794402769212309E+09, -6.027073059669237E+09, 4.912894760214381E+08,
2459699.500000000, A.D. 2022-Apr-30 00:00:00.0000, -1.791681897983038E+09, -6.027687707335883E+09, 4.916364683667877E+08,
2459706.500000000, A.D. 2022-May-07 00:00:00.0000, -1.788960762515816E+09, -6.028301155192965E+09, 4.919833674059560E+08,
2459713.500000000, A.D. 2022-May-14 00:00:00.0000, -1.786239366275973E+09, -6.028913403015384E+09, 4.923301732990320E+08,
2459720.500000000, A.D. 2022-May-21 00:00:00.0000, -1.783517712783885E+09, -6.029524451514139E+09, 4.926768861642752E+08,
2459727.500000000, A.D. 2022-May-28 00:00:00.0000, -1.780795805340948E+09, -6.030134302060205E+09, 4.930235060760417E+08,
2459734.500000000, A.D. 2022-Jun-04 00:00:00.0000, -1.778073646966500E+09, -6.030742956495442E+09, 4.933700330740156E+08,
2459741.500000000, A.D. 2022-Jun-11 00:00:00.0000, -1.775351240400995E+09, -6.031350417028201E+09, 4.937164671706705E+08,
2459748.500000000, A.D. 2022-Jun-18 00:00:00.0000, -1.772628588136676E+09, -6.031956686200125E+09, 4.940628083545833E+08,
2459755.500000000, A.D. 2022-Jun-25 00:00:00.0000, -1.769905692446294E+09, -6.032561766957127E+09, 4.944090565842526E+08,
2459762.500000000, A.D. 2022-Jul-02 00:00:00.0000, -1.767182555275792E+09, -6.033165662889976E+09, 4.947552117548618E+08,
2459769.500000000, A.D. 2022-Jul-09 00:00:00.0000, -1.764459177610633E+09, -6.033768378467353E+09, 4.951012736167848E+08,
2459776.500000000, A.D. 2022-Jul-16 00:00:00.0000, -1.761735558370939E+09, -6.034369918178352E+09, 4.954472417395239E+08,
2459783.500000000, A.D. 2022-Jul-23 00:00:00.0000, -1.759011695033814E+09, -6.034970284506641E+09, 4.957931157292757E+08,
2459790.500000000, A.D. 2022-Jul-30 00:00:00.0000, -1.756287585898772E+09, -6.035569478090175E+09, 4.961388954185426E+08,
2459797.500000000, A.D. 2022-Aug-06 00:00:00.0000, -1.753563230397498E+09, -6.036167499418266E+09, 4.964845807508643E+08,
2459804.500000000, A.D. 2022-Aug-13 00:00:00.0000, -1.750838628271124E+09, -6.036764349311631E+09, 4.968301716615493E+08,
2459811.500000000, A.D. 2022-Aug-20 00:00:00.0000, -1.748113779184392E+09, -6.037360028688736E+09, 4.971756680574293E+08,
2459818.500000000, A.D. 2022-Aug-27 00:00:00.0000, -1.745388682708536E+09, -6.037954538345079E+09, 4.975210698302679E+08,
2459825.500000000, A.D. 2022-Sep-03 00:00:00.0000, -1.742663338424973E+09, -6.038547878855891E+09, 4.978663768722146E+08,
2459832.500000000, A.D. 2022-Sep-10 00:00:00.0000, -1.739937746059703E+09, -6.039140050578377E+09, 4.982115890871253E+08,
2459839.500000000, A.D. 2022-Sep-17 00:00:00.0000, -1.737211905618999E+09, -6.039731053755221E+09, 4.985567063949661E+08,
2459846.500000000, A.D. 2022-Sep-24 00:00:00.0000, -1.734485817465961E+09, -6.040320888770244E+09, 4.989017287195723E+08,
2459853.500000000, A.D. 2022-Oct-01 00:00:00.0000, -1.731759482097940E+09, -6.040909556578483E+09, 4.992466559358029E+08,
2459860.500000000, A.D. 2022-Oct-08 00:00:00.0000, -1.729032899217555E+09, -6.041497058788666E+09, 4.995914877812369E+08,
2459867.500000000, A.D. 2022-Oct-15 00:00:00.0000, -1.726306067029100E+09, -6.042083396198844E+09, 4.999362239156175E+08,
2459874.500000000, A.D. 2022-Oct-22 00:00:00.0000, -1.723578983941972E+09, -6.042668567469104E+09, 5.002808641902978E+08,
2459881.500000000, A.D. 2022-Oct-29 00:00:00.0000, -1.720851650183264E+09, -6.043252570524851E+09, 5.006254086863368E+08,
2459888.500000000, A.D. 2022-Nov-05 00:00:00.0000, -1.718124067220245E+09, -6.043835403949499E+09, 5.009698575524192E+08,
2459895.500000000, A.D. 2022-Nov-12 00:00:00.0000, -1.715396236957519E+09, -6.044417067099355E+09, 5.013142109261525E+08,
2459902.500000000, A.D. 2022-Nov-19 00:00:00.0000, -1.712668161428257E+09, -6.044997559894802E+09, 5.016584689265463E+08,
2459909.500000000, A.D. 2022-Nov-26 00:00:00.0000, -1.709939842717283E+09, -6.045576882685130E+09, 5.020026316610110E+08,
2459916.500000000, A.D. 2022-Dec-03 00:00:00.0000, -1.707211282949973E+09, -6.046155036198513E+09, 5.023466992306068E+08,
2459923.500000000, A.D. 2022-Dec-10 00:00:00.0000, -1.704482484301450E+09, -6.046732021558478E+09, 5.026906717308447E+08,
2459930.500000000, A.D. 2022-Dec-17 00:00:00.0000, -1.701753449001353E+09, -6.047307840391814E+09, 5.030345492437084E+08,
2459937.500000000, A.D. 2022-Dec-24 00:00:00.0000, -1.699024179224783E+09, -6.047882495093807E+09, 5.033783318055246E+08,
2459944.500000000, A.D. 2022-Dec-31 00:00:00.0000, -1.696294676511816E+09, -6.048455989143243E+09, 5.037220193266833E+08,
2459951.500000000, A.D. 2023-Jan-07 00:00:00.0000, -1.693564940592828E+09, -6.049028326504809E+09, 5.040656115306649E+08,
2459958.500000000, A.D. 2023-Jan-14 00:00:00.0000, -1.690834969586694E+09, -6.049599509622101E+09, 5.044091081334705E+08,
2459965.500000000, A.D. 2023-Jan-21 00:00:00.0000, -1.688104762216576E+09, -6.050169539173820E+09, 5.047525090633814E+08,
2459972.500000000, A.D. 2023-Jan-28 00:00:00.0000, -1.685374318375322E+09, -6.050738415788714E+09, 5.050958143687139E+08,
2459979.500000000, A.D. 2023-Feb-04 00:00:00.0000, -1.682643638249003E+09, -6.051306140691474E+09, 5.054390240802031E+08,
2459986.500000000, A.D. 2023-Feb-11 00:00:00.0000, -1.679912721793814E+09, -6.051872715473144E+09, 5.057821381769683E+08,
2459993.500000000, A.D. 2023-Feb-18 00:00:00.0000, -1.677181568629536E+09, -6.052438141809062E+09, 5.061251565946860E+08,
2460000.500000000, A.D. 2023-Feb-25 00:00:00.0000, -1.674450178086624E+09, -6.053002421285984E+09, 5.064680792388155E+08,
2460007.500000000, A.D. 2023-Mar-04 00:00:00.0000, -1.671718549304590E+09, -6.053565555319310E+09, 5.068109059951618E+08,
2460014.500000000, A.D. 2023-Mar-11 00:00:00.0000, -1.668986681352865E+09, -6.054127545159712E+09, 5.071536367354095E+08,
2460021.500000000, A.D. 2023-Mar-18 00:00:00.0000, -1.666254573326878E+09, -6.054688392038360E+09, 5.074962713094528E+08,
2460028.500000000, A.D. 2023-Mar-25 00:00:00.0000, -1.663522224215847E+09, -6.055248097497737E+09, 5.078388095022447E+08,
2460035.500000000, A.D. 2023-Apr-01 00:00:00.0000, -1.660789632117573E+09, -6.055806663514413E+09, 5.081812509485900E+08,
2460042.500000000, A.D. 2023-Apr-08 00:00:00.0000, -1.658056793415473E+09, -6.056364091188570E+09, 5.085235951626453E+08,
2460049.500000000, A.D. 2023-Apr-15 00:00:00.0000, -1.655323704254735E+09, -6.056920379106335E+09, 5.088658418062506E+08,
2460056.500000000, A.D. 2023-Apr-22 00:00:00.0000, -1.652590362508334E+09, -6.057475524426693E+09, 5.092079907808611E+08,
2460063.500000000, A.D. 2023-Apr-29 00:00:00.0000, -1.649856767497788E+09, -6.058029524440083E+09, 5.095500420763614E+08,
2460070.500000000, A.D. 2023-May-06 00:00:00.0000, -1.647122919228836E+09, -6.058582376817390E+09, 5.098919956837330E+08,
2460077.500000000, A.D. 2023-May-13 00:00:00.0000, -1.644388818118785E+09, -6.059134079442793E+09, 5.102338515880573E+08,
2460084.500000000, A.D. 2023-May-20 00:00:00.0000, -1.641654464981357E+09, -6.059684630321467E+09, 5.105756097800629E+08,
2460091.500000000, A.D. 2023-May-27 00:00:00.0000, -1.638919861075515E+09, -6.060234027591499E+09, 5.109172702658341E+08,
2460098.500000000, A.D. 2023-Jun-03 00:00:00.0000, -1.636185008160689E+09, -6.060782269613928E+09, 5.112588330712476E+08,
2460105.500000000, A.D. 2023-Jun-10 00:00:00.0000, -1.633449908534599E+09, -6.061329355154654E+09, 5.116002982375615E+08,
2460112.500000000, A.D. 2023-Jun-17 00:00:00.0000, -1.630714564964648E+09, -6.061875283718224E+09, 5.119416657947865E+08,
2460119.500000000, A.D. 2023-Jun-24 00:00:00.0000, -1.627978980192886E+09, -6.062420055977842E+09, 5.122829356877944E+08,
2460126.500000000, A.D. 2023-Jul-01 00:00:00.0000, -1.625243155761410E+09, -6.062963673473440E+09, 5.126241076993887E+08,
2460133.500000000, A.D. 2023-Jul-08 00:00:00.0000, -1.622507091832185E+09, -6.063506136755716E+09, 5.129651815909109E+08,
2460140.500000000, A.D. 2023-Jul-15 00:00:00.0000, -1.619770789278031E+09, -6.064047444805840E+09, 5.133061573460872E+08,
$$EOE